{"type": "FeatureCollection", "features": [ {"type": "Feature", "properties": {"norad_id": 38779, "name": "GSAT-10 (GAGAN/PRN 128)", "group": "gnss", "lat": -0.019532481763752677, "lon": 126.3297378210092, "alt_km": 35776.43670524735, "timestamp": "2025-12-23T20:42:37.317170+00:00", "meta": {"OBJECT_NAME": "GSAT-10 (GAGAN/PRN 128)", "OBJECT_ID": "2012-051B", "EPOCH": "2025-12-23T03:15:20.655072", "MEAN_MOTION": 1.00271588, "ECCENTRICITY": 0.0002308, "INCLINATION": 0.067, "RA_OF_ASC_NODE": 263.271, "ARG_OF_PERICENTER": 219.6563, "MEAN_ANOMALY": 100.8716, "EPHEMERIS_TYPE": 0, "CLASSIFICATION_TYPE": "U", "NORAD_CAT_ID": 38779, "ELEMENT_SET_NO": 999, "REV_AT_EPOCH": 4833, "BSTAR": 0, "MEAN_MOTION_DOT": -1.44e-06, "MEAN_MOTION_DDOT": 0}, "tle": {"line1": "1 38779U 12051B   25357.13565573 -.00000144  00000+0  00000+0 0  9998", "line2": "2 38779   0.0670 263.2710 0002308 219.6563 100.8716  1.00271588 48338"}}, "geometry": {"type": "Point", "coordinates": [126.3297378210092, -0.019532481763752677]}}, {"type": "Feature", "properties": {"norad_id": 38833, "name": "GPS BIIF-3  (PRN 24)", "group": "gnss", "lat": 25.183979157896353, "lon": 171.09905929812373, "alt_km": 19781.498925796182, "timestamp": "2025-12-23T20:42:37.317183+00:00", "meta": {"OBJECT_NAME": "GPS BIIF-3  (PRN 24)", "OBJECT_ID": "2012-053A", "EPOCH": "2025-12-22T07:46:34.286880", "MEAN_MOTION": 2.0056507, "ECCENTRICITY": 0.0176029, "INCLINATION": 53.5595, "RA_OF_ASC_NODE": 150.8462, "ARG_OF_PERICENTER": 64.1364, "MEAN_ANOMALY": 297.6424, "EPHEMERIS_TYPE": 0, "CLASSIFICATION_TYPE": "U", "NORAD_CAT_ID": 38833, "ELEMENT_SET_NO": 999, "REV_AT_EPOCH": 9589, "BSTAR": 0, "MEAN_MOTION_DOT": 6.6e-07, "MEAN_MOTION_DDOT": 0}, "tle": {"line1": "1 38833U 12053A   25356.32400795  .00000066  00000+0  00000+0 0  9997", "line2": "2 38833  53.5595 150.8462 0176029  64.1364 297.6424  2.00565070 95894"}}, "geometry": {"type": "Point", "coordinates": [171.09905929812373, 25.183979157896353]}}, {"type": "Feature", "properties": {"norad_id": 38857, "name": "GSAT0103 (GALILEO-FM3)", "group": "gnss", "lat": -34.277763902899515, "lon": -45.95597432995804, "alt_km": 23220.46541373749, "timestamp": "2025-12-23T20:42:37.317197+00:00", "meta": {"OBJECT_NAME": "GSAT0103 (GALILEO-FM3)", "OBJECT_ID": "2012-055A", "EPOCH": "2025-12-22T21:54:43.252704", "MEAN_MOTION": 1.70473351, "ECCENTRICITY": 0.0002995, "INCLINATION": 55.698, "RA_OF_ASC_NODE": 106.3873, "ARG_OF_PERICENTER": 269.858, "MEAN_ANOMALY": 90.0891, "EPHEMERIS_TYPE": 0, "CLASSIFICATION_TYPE": "U", "NORAD_CAT_ID": 38857, "ELEMENT_SET_NO": 999, "REV_AT_EPOCH": 8200, "BSTAR": 0, "MEAN_MOTION_DOT": 1e-07, "MEAN_MOTION_DDOT": 0}, "tle": {"line1": "1 38857U 12055A   25356.91300061  .00000010  00000+0  00000+0 0  9994", "line2": "2 38857  55.6980 106.3873 0002995 269.8580  90.0891  1.70473351 82005"}}, "geometry": {"type": "Point", "coordinates": [-45.95597432995804, -34.277763902899515]}}, {"type": "Feature", "properties": {"norad_id": 38953, "name": "BEIDOU-2 G6 (C02)", "group": "gnss", "lat": 3.148717869099825, "lon": 127.22081621717463, "alt_km": 35803.864799509116, "timestamp": "2025-12-23T20:42:37.317210+00:00", "meta": {"OBJECT_NAME": "BEIDOU-2 G6 (C02)", "OBJECT_ID": "2012-059A", "EPOCH": "2025-12-23T00:55:51.734208", "MEAN_MOTION": 1.00268399, "ECCENTRICITY": 0.00083158, "INCLINATION": 3.9737, "RA_OF_ASC_NODE": 75.4058, "ARG_OF_PERICENTER": 292.2728, "MEAN_ANOMALY": 182.0387, "EPHEMERIS_TYPE": 0, "CLASSIFICATION_TYPE": "U", "NORAD_CAT_ID": 38953, "ELEMENT_SET_NO": 999, "REV_AT_EPOCH": 4814, "BSTAR": 0, "MEAN_MOTION_DOT": -1.55e-06, "MEAN_MOTION_DDOT": 0}, "tle": {"line1": "1 38953U 12059A   25357.03879322 -.00000155  00000+0  00000+0 0  9991", "line2": "2 38953   3.9737  75.4058 0008315 292.2728 182.0387  1.00268399 48141"}}, "geometry": {"type": "Point", "coordinates": [127.22081621717463, 3.148717869099825]}}, {"type": "Feature", "properties": {"norad_id": 38977, "name": "LUCH 5B (SDCM/PRN 125)", "group": "gnss", "lat": -4.187666801464808, "lon": 27.357192253038015, "alt_km": 35807.69769371335, "timestamp": "2025-12-23T20:42:37.317223+00:00", "meta": {"OBJECT_NAME": "LUCH 5B (SDCM/PRN 125)", "OBJECT_ID": "2012-061A", "EPOCH": "2025-12-22T23:21:25.865856", "MEAN_MOTION": 1.00272063, "ECCENTRICITY": 0.00065916, "INCLINATION": 10.1018, "RA_OF_ASC_NODE": 51.6073, "ARG_OF_PERICENTER": 195.9358, "MEAN_ANOMALY": 178.2582, "EPHEMERIS_TYPE": 0, "CLASSIFICATION_TYPE": "U", "NORAD_CAT_ID": 38977, "ELEMENT_SET_NO": 999, "REV_AT_EPOCH": 4784, "BSTAR": 0, "MEAN_MOTION_DOT": -1.21e-06, "MEAN_MOTION_DDOT": 0}, "tle": {"line1": "1 38977U 12061A   25356.97321604 -.00000121  00000+0  00000+0 0  9990", "line2": "2 38977  10.1018  51.6073 0006591 195.9358 178.2582  1.00272063 47847"}}, "geometry": {"type": "Point", "coordinates": [27.357192253038015, -4.187666801464808]}}, {"type": "Feature", "properties": {"norad_id": 39155, "name": "COSMOS 2485 (747)", "group": "gnss", "lat": -9.413875120453945, "lon": 75.14119828383109, "alt_km": 19162.711129300456, "timestamp": "2025-12-23T20:42:37.317235+00:00", "meta": {"OBJECT_NAME": "COSMOS 2485 (747)", "OBJECT_ID": "2013-019A", "EPOCH": "2025-12-22T11:14:56.157792", "MEAN_MOTION": 2.13103251, "ECCENTRICITY": 0.00249447, "INCLINATION": 65.3184, "RA_OF_ASC_NODE": 79.5401, "ARG_OF_PERICENTER": 230.2875, "MEAN_ANOMALY": 129.5355, "EPHEMERIS_TYPE": 0, "CLASSIFICATION_TYPE": "U", "NORAD_CAT_ID": 39155, "ELEMENT_SET_NO": 999, "REV_AT_EPOCH": 9851, "BSTAR": 0, "MEAN_MOTION_DOT": -2e-08, "MEAN_MOTION_DDOT": 0}, "tle": {"line1": "1 39155U 13019A   25356.46870553 -.00000002  00000+0  00000+0 0  9997", "line2": "2 39155  65.3184  79.5401 0024944 230.2875 129.5355  2.13103251 98519"}}, "geometry": {"type": "Point", "coordinates": [75.14119828383109, -9.413875120453945]}}, {"type": "Feature", "properties": {"norad_id": 39166, "name": "GPS BIIF-4  (PRN 27)", "group": "gnss", "lat": 37.26481939507471, "lon": 63.46645173636379, "alt_km": 20130.02590374748, "timestamp": "2025-12-23T20:42:37.317252+00:00", "meta": {"OBJECT_NAME": "GPS BIIF-4  (PRN 27)", "OBJECT_ID": "2013-023A", "EPOCH": "2025-12-22T04:30:56.781216", "MEAN_MOTION": 2.00564649, "ECCENTRICITY": 0.01384833, "INCLINATION": 54.6439, "RA_OF_ASC_NODE": 276.1841, "ARG_OF_PERICENTER": 48.7288, "MEAN_ANOMALY": 312.4984, "EPHEMERIS_TYPE": 0, "CLASSIFICATION_TYPE": "U", "NORAD_CAT_ID": 39166, "ELEMENT_SET_NO": 999, "REV_AT_EPOCH": 9233, "BSTAR": 0, "MEAN_MOTION_DOT": -1.5e-07, "MEAN_MOTION_DDOT": 0}, "tle": {"line1": "1 39166U 13023A   25356.18815719 -.00000015  00000+0  00000+0 0  9990", "line2": "2 39166  54.6439 276.1841 0138483  48.7288 312.4984  2.00564649 92335"}}, "geometry": {"type": "Point", "coordinates": [63.46645173636379, 37.26481939507471]}}, {"type": "Feature", "properties": {"norad_id": 39199, "name": "IRNSS-1A", "group": "gnss", "lat": 17.703655334095213, "lon": 93.1474922467529, "alt_km": 35887.63799316072, "timestamp": "2025-12-23T20:42:37.317266+00:00", "meta": {"OBJECT_NAME": "IRNSS-1A", "OBJECT_ID": "2013-034A", "EPOCH": "2025-12-22T18:33:45.913248", "MEAN_MOTION": 1.00272973, "ECCENTRICITY": 0.00245932, "INCLINATION": 35.3347, "RA_OF_ASC_NODE": 66.4064, "ARG_OF_PERICENTER": 215.1695, "MEAN_ANOMALY": 143.2435, "EPHEMERIS_TYPE": 0, "CLASSIFICATION_TYPE": "U", "NORAD_CAT_ID": 39199, "ELEMENT_SET_NO": 999, "REV_AT_EPOCH": 4559, "BSTAR": 0, "MEAN_MOTION_DOT": 7.6e-07, "MEAN_MOTION_DDOT": 0}, "tle": {"line1": "1 39199U 13034A   25356.77344807  .00000076  00000+0  00000+0 0  9994", "line2": "2 39199  35.3347  66.4064 0024593 215.1695 143.2435  1.00272973 45592"}}, "geometry": {"type": "Point", "coordinates": [93.1474922467529, 17.703655334095213]}}, {"type": "Feature", "properties": {"norad_id": 39533, "name": "GPS BIIF-5  (PRN 30)", "group": "gnss", "lat": 36.77574668789628, "lon": -56.94112265986389, "alt_km": 20192.998390978413, "timestamp": "2025-12-23T20:42:37.317279+00:00", "meta": {"OBJECT_NAME": "GPS BIIF-5  (PRN 30)", "OBJECT_ID": "2014-008A", "EPOCH": "2025-12-20T16:28:24.690432", "MEAN_MOTION": 2.00548724, "ECCENTRICITY": 0.00795742, "INCLINATION": 53.6246, "RA_OF_ASC_NODE": 156.6308, "ARG_OF_PERICENTER": 226.1122, "MEAN_ANOMALY": 133.2164, "EPHEMERIS_TYPE": 0, "CLASSIFICATION_TYPE": "U", "NORAD_CAT_ID": 39533, "ELEMENT_SET_NO": 999, "REV_AT_EPOCH": 8610, "BSTAR": 0, "MEAN_MOTION_DOT": 6.5e-07, "MEAN_MOTION_DDOT": 0}, "tle": {"line1": "1 39533U 14008A   25354.68639688  .00000065  00000+0  00000+0 0  9998", "line2": "2 39533  53.6246 156.6308 0079574 226.1122 133.2164  2.00548724 86105"}}, "geometry": {"type": "Point", "coordinates": [-56.94112265986389, 36.77574668789628]}}, {"type": "Feature", "properties": {"norad_id": 39617, "name": "ASTRA 5B (EGNOS/PRN 123)", "group": "gnss", "lat": 0.05728269693061317, "lon": 66.81776190515825, "alt_km": 35802.57665319021, "timestamp": "2025-12-23T20:42:37.317291+00:00", "meta": {"OBJECT_NAME": "ASTRA 5B (EGNOS/PRN 123)", "OBJECT_ID": "2014-011B", "EPOCH": "2025-12-23T06:23:47.555232", "MEAN_MOTION": 1.00270566, "ECCENTRICITY": 0.00045281, "INCLINATION": 0.0439, "RA_OF_ASC_NODE": 8.6894, "ARG_OF_PERICENTER": 270.3367, "MEAN_ANOMALY": 292.4775, "EPHEMERIS_TYPE": 0, "CLASSIFICATION_TYPE": "U", "NORAD_CAT_ID": 39617, "ELEMENT_SET_NO": 999, "REV_AT_EPOCH": 4290, "BSTAR": 0, "MEAN_MOTION_DOT": 1.58e-06, "MEAN_MOTION_DDOT": 0}, "tle": {"line1": "1 39617U 14011B   25357.26652263  .00000158  00000+0  00000+0 0  9999", "line2": "2 39617   0.0439   8.6894 0004528 270.3367 292.4775  1.00270566 42904"}}, "geometry": {"type": "Point", "coordinates": [66.81776190515825, 0.05728269693061317]}}]}